[{"OBJECT_NAME":"TIANMU-1 10","OBJECT_ID":"2023-101D","EPOCH":"2026-03-09T23:06:46.939392","MEAN_MOTION":15.2921896,"ECCENTRICITY":0.00069292,"INCLINATION":97.2749,"RA_OF_ASC_NODE":122.1027,"ARG_OF_PERICENTER":133.6162,"MEAN_ANOMALY":226.5654,"EPHEMERIS_TYPE":0,"CLASSIFICATION_TYPE":"U","NORAD_CAT_ID":57402,"ELEMENT_SET_NO":999,"REV_AT_EPOCH":14647,"BSTAR":0.00032238884,"MEAN_MOTION_DOT":9.075e-5,"MEAN_MOTION_DDOT":0},{"OBJECT_NAME":"STARLINK-31657","OBJECT_ID":"2024-071D","EPOCH":"2026-03-09T01:57:04.100544","MEAN_MOTION":15.2756621,"ECCENTRICITY":0.00014394,"INCLINATION":43.0031,"RA_OF_ASC_NODE":343.0916,"ARG_OF_PERICENTER":283.5557,"MEAN_ANOMALY":76.5134,"EPHEMERIS_TYPE":0,"CLASSIFICATION_TYPE":"U","NORAD_CAT_ID":59487,"ELEMENT_SET_NO":999,"REV_AT_EPOCH":10811,"BSTAR":-0.0001504653,"MEAN_MOTION_DOT":-4.398e-5,"MEAN_MOTION_DDOT":0}]
